0 COSMOS 886 DEB
1 15555U 76126BT  13284.83566018  .00000691  00000-0  82208-3 0   842
2 15555 065.7858 054.2751 0974536 205.2885 149.7229 12.50107888987435
0 COSMOS 886 DEB
1 15555U 76126BT  13287.79571280  .00000887  00000-0  10370-2 0   855
2 15555 065.7855 048.2957 0974446 204.1372 151.0896 12.50111480987802
0 COSMOS 886 DEB
1 15555U 76126BT  13291.79576698  .00000658  00000-0  78671-3 0   864
2 15555 065.7868 040.2147 0974237 202.5784 152.9442 12.50116820988302
0 COSMOS 886 DEB
1 15555U 76126BT  13295.87580516  .00000491  00000-0  60386-3 0   871
2 15555 065.7868 031.9719 0974069 201.0083 154.8162 12.50122851988810
